{
  "norad_id": 50469,
  "name": "ONEWEB-0389",
  "history": [
    {
      "epoch": "2026-03-28T18:46:31.125216Z",
      "apogee_km": 1194.8245560305559,
      "perigee_km": 1192.5838967748386,
      "latitude_deg": -1.7314390182572765e-05,
      "longitude_deg": -85.99189959460983,
      "height_km": 1196.33567876028,
      "semi_major_axis_km": 7571.8412264026965,
      "eccentricity": 0.00014796,
      "inclination_deg": 87.9176,
      "raan_deg": 21.8356,
      "arg_perigee_deg": 76.3338,
      "mean_anomaly_deg": 283.7958,
      "mean_motion_rev_day": 13.17651358
    },
    {
      "epoch": "2026-03-29T02:03:54.624096Z",
      "apogee_km": 1194.8333426543268,
      "perigee_km": 1192.5769336971516,
      "latitude_deg": -6.186470227570406e-05,
      "longitude_deg": 164.30050280788964,
      "height_km": 1196.342549625815,
      "semi_major_axis_km": 7571.842138175739,
      "eccentricity": 0.000149,
      "inclination_deg": 87.9178,
      "raan_deg": 21.7753,
      "arg_perigee_deg": 76.7428,
      "mean_anomaly_deg": 283.3869,
      "mean_motion_rev_day": 13.1765112
    },
    {
      "epoch": "2026-03-30T01:45:25.966080Z",
      "apogee_km": 1194.8266232304104,
      "perigee_km": 1192.5793011296355,
      "latitude_deg": -3.846472623029585e-05,
      "longitude_deg": 167.75101511750918,
      "height_km": 1196.3538718358288,
      "semi_major_axis_km": 7571.839962180023,
      "eccentricity": 0.0001484,
      "inclination_deg": 87.9178,
      "raan_deg": 21.5794,
      "arg_perigee_deg": 77.3943,
      "mean_anomaly_deg": 282.7354,
      "mean_motion_rev_day": 13.17651688
    },
    {
      "epoch": "2026-03-30T05:24:07.732800Z",
      "apogee_km": 1194.827693144326,
      "perigee_km": 1192.580522140399,
      "latitude_deg": -4.6501656964822164e-05,
      "longitude_deg": 112.8970948328084,
      "height_km": 1196.35772991687,
      "semi_major_axis_km": 7571.841107642362,
      "eccentricity": 0.00014839,
      "inclination_deg": 87.9179,
      "raan_deg": 21.5492,
      "arg_perigee_deg": 77.5351,
      "mean_anomaly_deg": 282.5946,
      "mean_motion_rev_day": 13.17651389
    }
  ]
}